ALOS-2                  
1 39766U 14029A   26169.96525765  .00001076  00000+0  15095-3 0  9992
2 39766  97.9225 267.1031 0001661  91.8463 268.2939 14.79473400651844
KAZEOSAT 2              
1 40010U 14033A   26169.91404376  .00000848  00000+0  10409-3 0  9990
2 40010  97.5399   9.4341 0007700 323.4274  36.6415 14.85472780649212
HODOYOSHI-4             
1 40011U 14033B   26169.98403108  .00000735  00000+0  85245-4 0  9996
2 40011  97.5446 354.7191 0022447 302.1536  57.7504 14.88129627649074
DEIMOS-2                
1 40013U 14033D   26169.92484782  .00001102  00000+0  10928-3 0  9993
2 40013  97.5819  44.3523 0001360  52.9269 307.2075 14.93727633637985
HODOYOSHI-3             
1 40015U 14033F   26169.93646964  .00000747  00000+0  92090-4 0  9993
2 40015  97.6419 332.9065 0032527 351.5318   8.5345 14.85391359647887
SPOT 7                  
1 40053U 14034A   26169.96229200  .00000286  00000+0  67523-4 0  9990
2 40053  98.0625 232.4084 0001248  93.5417 266.5927 14.60959578637390
SKYSAT-B                
1 40072U 14037D   26169.60449564  .00001016  00000+0  11733-3 0  9995
2 40072  98.3840 128.6502 0004164 275.7139  84.3601 14.88031001646172
WORLDVIEW-3 (WV-3)      
1 40115U 14048A   26169.91925161  .00000648  00000+0  82242-4 0  9995
2 40115  97.8567 244.7283 0000841  23.2960 336.8293 14.85024302642162
GAOFEN-2                
1 40118U 14049A   26170.00067619  .00000473  00000+0  68130-4 0  9992
2 40118  98.0106 234.2062 0006294 219.3716 140.7039 14.80899495639503
YAOGAN-21               
1 40143U 14053A   26169.99819593  .00005293  00000+0  20583-3 0  9991
2 40143  97.1468 210.1561 0009927  89.1142 271.1234 15.26393876655238
YAOGAN-22               
1 40275U 14063A   26169.93486263 -.00000047  00000+0  80986-6 0  9995
2 40275 100.7727 321.2371 0006382 181.4010 178.7084 13.15530999560042
ASNARO                  
1 40298U 14070A   26170.00324866  .00005029  00000+0  24026-3 0  9992
2 40298  97.3452 246.0680 0005840 159.4913 200.6558 15.19454680644283
YAOGAN-24               
1 40310U 14072A   26169.97997358  .00000190  00000+0  35147-4 0  9996
2 40310  98.1497 307.3329 0012542 257.3934 102.5873 14.76223785623981
CBERS 4                 
1 40336U 14079A   26169.98886652 -.00000014  00000+0  97636-5 0  9994
2 40336  98.3527 226.7640 0001776  63.1935 296.9433 14.35509137604214
YAOGAN-26               
1 40362U 14088A   26169.94427286  .00015619  00000+0  30640-3 0  9999
2 40362  97.0645 170.1124 0005808  64.7220 295.4632 15.47407769637979
SMAP                    
1 40376U 15003A   26169.92605309  .00000306  00000+0  68395-4 0  9990
2 40376  98.1276 176.9960 0001343  96.3958 263.7397 14.63367814607872
KOMPSAT-3A              
1 40536U 15014A   26169.98042413  .00019822  00000+0  28644-3 0  9992
2 40536  97.6888 161.4740 0056682 167.9792 192.2829 15.54063155622094
SENTINEL-2A             
1 40697U 15028A   26169.96294524  .00000013  00000+0  21463-4 0  9990
2 40697  98.5684 244.7894 0001119  93.7311 266.4000 14.30815491573988
GAOFEN-8                
1 40701U 15030A   26169.96481869  .00017816  00000+0  36624-3 0  9992
2 40701  97.6898   3.4412 0008836 179.9449 180.1802 15.46008473611728
CARBONITE 1 (CBNT-1)    
1 40718U 15032D   26170.00353956  .00001666  00000+0  20803-3 0  9992
2 40718  97.6505 347.9933 0013074 291.8307  68.1517 14.83593680589611
YAOGAN-27               
1 40878U 15040A   26170.00510162  .00000304  00000+0  91101-3 0  9999
2 40878 100.1153 156.3092 0007726 205.7883 154.2846 13.16071400517906
GAOFEN-9 01             
1 40894U 15047A   26170.01943491  .00000758  00000+0  99203-4 0  9995
2 40894  97.6279 205.6311 0028498 132.0607 228.3039 14.82886740580463
YAOGAN-28               
1 41026U 15064A   26169.96054753  .00005072  00000+0  19129-3 0  9990
2 41026  97.3082 308.1857 0010794 177.1166 183.0138 15.27438792590956
YAOGAN-29               
1 41038U 15069A   26169.99944869 -.00000040  00000+0  17124-5 0  9993
2 41038  98.0021 198.6353 0002549  52.3085 307.8360 14.83086116570890
KENT RIDGE 1            
1 41167U 15077B   26169.86604523  .00003348  00000+0  10622-3 0  9998
2 41167  14.9792 253.5041 0008248 262.3593  97.5792 15.23140783581350
GAOFEN-4                
1 41194U 15083A   26169.63062473 -.00000341  00000+0  00000+0 0  9998
2 41194   0.3622  83.8351 0004364 113.5197  42.2100  1.00268207 38541
JASON-3                 
1 41240U 16002A   26169.94437681 -.00000044  00000+0  70949-4 0  9997
2 41240  66.0404 122.1406 0008501 272.7136  87.2910 12.87628096487477
SENTINEL-3A             
1 41335U 16011A   26169.89966974  .00000090  00000+0  55274-4 0  9992
2 41335  98.6249 237.2590 0001416 100.6041 259.5300 14.26733085538300
ZIYUAN 3-02 (ZY 3-02)   
1 41556U 16033A   26169.96557822  .00004610  00000+0  20943-3 0  9993
2 41556  97.3834 245.7068 0012371 284.7571  75.2294 15.21193605558254
CARTOSAT-2C             
1 41599U 16040A   26169.97064446  .00002672  00000+0  13006-3 0  9992
2 41599  97.4478 229.9248 0010139 125.6269 234.5911 15.19201600553980
