OBJECT_NAME,OBJECT_ID,EPOCH,MEAN_MOTION,ECCENTRICITY,INCLINATION,RA_OF_ASC_NODE,ARG_OF_PERICENTER,MEAN_ANOMALY,EPHEMERIS_TYPE,CLASSIFICATION_TYPE,NORAD_CAT_ID,ELEMENT_SET_NO,REV_AT_EPOCH,BSTAR,MEAN_MOTION_DOT,MEAN_MOTION_DDOT
ALOS-2,2014-029A,2026-06-18T23:09:58.260960,14.79473400,.0001661,97.9225,267.1031,91.8463,268.2939,0,U,39766,999,65184,.15095179E-3,.1076E-4,0
KAZEOSAT 2,2014-033A,2026-06-18T21:56:13.380864,14.85472780,.00077003,97.5399,9.4341,323.4274,36.6415,0,U,40010,999,64921,.10408672E-3,.848E-5,0
HODOYOSHI-4,2014-033B,2026-06-18T23:37:00.285312,14.88129627,.00224477,97.5446,354.7191,302.1536,57.7504,0,U,40011,999,64907,.85244998E-4,.735E-5,0
DEIMOS-2,2014-033D,2026-06-18T22:11:46.851648,14.93727633,.00013602,97.5819,44.3523,52.9269,307.2075,0,U,40013,999,63798,.1092792E-3,.1102E-4,0
HODOYOSHI-3,2014-033F,2026-06-18T22:28:30.976896,14.85391359,.00325271,97.6419,332.9065,351.5318,8.5345,0,U,40015,999,64788,.92090267E-4,.747E-5,0
SPOT 7,2014-034A,2026-06-18T23:05:42.028800,14.60959578,.00012489,98.0625,232.4084,93.5417,266.5927,0,U,40053,999,63739,.67523107E-4,.286E-5,0
SKYSAT-B,2014-037D,2026-06-18T14:30:28.423296,14.88031001,.00041647,98.3840,128.6502,275.7139,84.3601,0,U,40072,999,64617,.11733227E-3,.1016E-4,0
WORLDVIEW-3 (WV-3),2014-048A,2026-06-18T22:03:43.339104,14.85024302,.00008412,97.8567,244.7283,23.2960,336.8293,0,U,40115,999,64216,.82242315E-4,.648E-5,0
GAOFEN-2,2014-049A,2026-06-19T00:00:58.422816,14.80899495,.00062946,98.0106,234.2062,219.3716,140.7039,0,U,40118,999,63950,.681301E-4,.473E-5,0
YAOGAN-21,2014-053A,2026-06-18T23:57:24.128352,15.26393876,.00099271,97.1468,210.1561,89.1142,271.1234,0,U,40143,999,65523,.20583082E-3,.5293E-4,0
YAOGAN-22,2014-063A,2026-06-18T22:26:12.131232,13.15530999,.00063823,100.7727,321.2371,181.4010,178.7084,0,U,40275,999,56004,.809865E-6,-.47E-6,0
ASNARO,2014-070A,2026-06-19T00:04:40.684224,15.19454680,.00058401,97.3452,246.0680,159.4913,200.6558,0,U,40298,999,64428,.24026006E-3,.5029E-4,0
YAOGAN-24,2014-072A,2026-06-18T23:31:09.717312,14.76223785,.00125424,98.1497,307.3329,257.3934,102.5873,0,U,40310,999,62398,.35146705E-4,.19E-5,0
CBERS 4,2014-079A,2026-06-18T23:43:58.067328,14.35509137,.00017764,98.3527,226.7640,63.1935,296.9433,0,U,40336,999,60421,.9763563E-5,-.14E-6,0
YAOGAN-26,2014-088A,2026-06-18T22:39:45.175104,15.47407769,.00058089,97.0645,170.1124,64.7220,295.4632,0,U,40362,999,63797,.30639537E-3,.15619E-3,0
SMAP,2015-003A,2026-06-18T22:13:30.986976,14.63367814,.00013436,98.1276,176.9960,96.3958,263.7397,0,U,40376,999,60787,.68394751E-4,.306E-5,0
KOMPSAT-3A,2015-014A,2026-06-18T23:31:48.644832,15.54063155,.00566826,97.6888,161.4740,167.9792,192.2829,0,U,40536,999,62209,.28644268E-3,.19822E-3,0
SENTINEL-2A,2015-028A,2026-06-18T23:06:38.468736,14.30815491,.0001119,98.5684,244.7894,93.7311,266.4000,0,U,40697,999,57398,.21463387E-4,.13E-6,0
GAOFEN-8,2015-030A,2026-06-18T23:09:20.334816,15.46008473,.00088363,97.6898,3.4412,179.9449,180.1802,0,U,40701,999,61172,.36624221E-3,.17816E-3,0
CARBONITE 1 (CBNT-1),2015-032D,2026-06-19T00:05:05.817984,14.83593680,.0013074,97.6505,347.9933,291.8307,68.1517,0,U,40718,999,58961,.20803463E-3,.1666E-4,0
YAOGAN-27,2015-040A,2026-06-19T00:07:20.779968,13.16071400,.00077267,100.1153,156.3092,205.7883,154.2846,0,U,40878,999,51790,.91101144E-3,.304E-5,0
GAOFEN-9 01,2015-047A,2026-06-19T00:27:59.176224,14.82886740,.00284986,97.6279,205.6311,132.0607,228.3039,0,U,40894,999,58046,.99203072E-4,.758E-5,0
YAOGAN-28,2015-064A,2026-06-18T23:03:11.306592,15.27438792,.00107941,97.3082,308.1857,177.1166,183.0138,0,U,41026,999,59095,.19129117E-3,.5072E-4,0
YAOGAN-29,2015-069A,2026-06-18T23:59:12.366816,14.83086116,.00025495,98.0021,198.6353,52.3085,307.8360,0,U,41038,999,57089,.1712372E-5,-.4E-6,0
KENT RIDGE 1,2015-077B,2026-06-18T20:47:06.307872,15.23140783,.0008248,14.9792,253.5041,262.3593,97.5792,0,U,41167,999,58135,.10621702E-3,.3348E-4,0
GAOFEN-4,2015-083A,2026-06-18T15:08:05.976672,1.00268207,.00043642,0.3622,83.8351,113.5197,42.2100,0,U,41194,999,3854,0,-.341E-5,0
JASON-3,2016-002A,2026-06-18T22:39:54.156384,12.87628096,.00085011,66.0404,122.1406,272.7136,87.2910,0,U,41240,999,48747,.70949366E-4,-.44E-6,0
SENTINEL-3A,2016-011A,2026-06-18T21:35:31.465536,14.26733085,.00014167,98.6249,237.2590,100.6041,259.5300,0,U,41335,999,53830,.55274059E-4,.9E-6,0
ZIYUAN 3-02 (ZY 3-02),2016-033A,2026-06-18T23:10:25.958208,15.21193605,.00123718,97.3834,245.7068,284.7571,75.2294,0,U,41556,999,55825,.20943337E-3,.461E-4,0
CARTOSAT-2C,2016-040A,2026-06-18T23:17:43.681344,15.19201600,.0010139,97.4478,229.9248,125.6269,234.5911,0,U,41599,999,55398,.13005602E-3,.2672E-4,0
